{"spkid": "50763255", "covariance": {"epoch": "2459739.5", "labels": ["e", "q", "tp", "node", "peri", "i"], "elements": [{"sigma": 9.76563780192178e-08, "name": "e", "units": null, "value": ".774486437915415", "title": "eccentricity", "label": "e"}, {"label": "q", "sigma": 1.71643049048023e-07, "name": "q", "units": "au", "value": ".3966152025029407", "title": "perihelion distance"}, {"sigma": 2.43770449273844e-05, "name": "tp", "value": "2459464.320523300582", "title": "time of perihelion passage", "units": "TDB", "label": "tp"}, {"label": "node", "units": "deg", "title": "longitude of the ascending node", "value": "210.7484893394458", "name": "om", "sigma": 8.98143324352783e-05}, {"label": "peri", "units": "deg", "title": "argument of perihelion", "value": "315.4407675590322", "name": "w", "sigma": 8.68385329583919e-05}, {"name": "i", "sigma": 3.51805026856988e-05, "title": "inclination", "value": "5.893569567511522", "units": "deg", "label": "i"}], "data": [["9.536768167832375E-15", "-1.6760921012667E-14", "-7.420298597904868E-13", "4.820677735262433E-12", "-3.417559262747682E-12", "2.266244904165798E-12"], ["-1.6760921012667E-14", "2.946133628650216E-14", "1.298579837725119E-12", "-8.498903809509624E-12", "6.032278104925938E-12", "-3.996156114263936E-12"], ["-7.420298597904868E-13", "1.298579837725119E-12", "5.942403193917161E-10", "-1.042870150129371E-9", "1.180896996634211E-9", "-2.779785251850383E-10"], ["4.820677735262433E-12", "-8.498903809509624E-12", "-1.042870150129371E-9", "8.066614310794687E-9", "-7.634799941142135E-9", "2.787623588316516E-9"], ["-3.417559262747682E-12", "6.032278104925938E-12", "1.180896996634211E-9", "-7.634799941142135E-9", "7.540930806365711E-9", "-2.49528526174171E-9"], ["2.266244904165798E-12", "-3.996156114263936E-12", "-2.779785251850383E-10", "2.787623588316516E-9", "-2.49528526174171E-9", "1.237667769218458E-9"]]}, "elements": [{"label": "e", "sigma": "9.7402E-8", "name": "e", "units": null, "value": ".773570117791896", "title": "eccentricity"}, {"value": "1.759642478959033", "title": "semi-major axis", "units": "au", "name": "a", "sigma": "1.1205E-8", "label": "a"}, {"units": "au", "value": ".3984356392390699", "title": "perihelion distance", "name": "q", "sigma": "1.718E-7", "label": "q"}, {"label": "i", "title": "inclination; angle with respect to x-y ecliptic plane", "value": "5.908254825430646", "units": "deg", "name": "i", "sigma": "3.5271E-5"}, {"label": "node", "value": "210.5294495910465", "title": "longitude of the ascending node", "units": "deg", "sigma": "8.973E-5", "name": "om"}, {"label": "peri", "name": "w", "sigma": "8.6706E-5", "value": "315.6529244164852", "title": "argument of perihelion", "units": "deg"}, {"sigma": "1.1261E-5", "name": "ma", "units": "deg", "title": "mean anomaly", "value": "13.19314743988942", "label": "M"}, {"label": "tp", "name": "tp", "sigma": "2.6493E-5", "units": "TDB", "value": "2461169.254966228638", "title": "time of perihelion passage"}, {"label": "period", "sigma": "8.1435E-6", "name": "per", "units": "d", "title": "sidereal orbital period", "value": "852.5798873194994"}, {"label": "n", "value": ".4222478214115929", "title": "mean motion", "units": "deg/d", "sigma": "4.0332E-9", "name": "n"}, {"name": "ad", "sigma": "1.9873E-8", "units": "au", "title": "aphelion distance", "value": "3.120849318678995", "label": "Q"}], "epoch": "2461200.5"}